{
    "links": {
        "self": "http://www.neowsapp.com/rest/v1/neo/3696442?api_key=iIulBulltgU6a56xZRHN4H3l9WmuAYTsLGpBGhQ2"
    },
    "id": "3696442",
    "neo_reference_id": "3696442",
    "name": "(2014 WF7)",
    "designation": "2014 WF7",
    "nasa_jpl_url": "http://ssd.jpl.nasa.gov/sbdb.cgi?sstr=3696442",
    "absolute_magnitude_h": 22.6,
    "estimated_diameter": {
        "kilometers": {
            "estimated_diameter_min": 0.0802703167,
            "estimated_diameter_max": 0.1794898848
        },
        "meters": {
            "estimated_diameter_min": 80.2703167283,
            "estimated_diameter_max": 179.4898847799
        },
        "miles": {
            "estimated_diameter_min": 0.049877647,
            "estimated_diameter_max": 0.1115298092
        },
        "feet": {
            "estimated_diameter_min": 263.3540659348,
            "estimated_diameter_max": 588.8775935812
        }
    },
    "is_potentially_hazardous_asteroid": false,
    "close_approach_data": [
        {
            "close_approach_date": "2001-12-02",
            "close_approach_date_full": "2001-Dec-02 07:46",
            "epoch_date_close_approach": 1007279160000,
            "relative_velocity": {
                "kilometers_per_second": "5.7651177494",
                "kilometers_per_hour": "20754.4238977207",
                "miles_per_hour": "12895.9918935587"
            },
            "miss_distance": {
                "astronomical": "0.3024882657",
                "lunar": "117.6679353573",
                "kilometers": "45251600.248714059",
                "miles": "28118040.5436856542"
            },
            "orbiting_body": "Earth"
        },
        {
            "close_approach_date": "2014-11-10",
            "close_approach_date_full": "2014-Nov-10 00:26",
            "epoch_date_close_approach": 1415579160000,
            "relative_velocity": {
                "kilometers_per_second": "6.1267300397",
                "kilometers_per_hour": "22056.228142977",
                "miles_per_hour": "13704.8824258403"
            },
            "miss_distance": {
                "astronomical": "0.2708255699",
                "lunar": "105.3511466911",
                "kilometers": "40514928.398576113",
                "miles": "25174809.1354638394"
            },
            "orbiting_body": "Earth"
        },
        {
            "close_approach_date": "2027-10-17",
            "close_approach_date_full": "2027-Oct-17 23:08",
            "epoch_date_close_approach": 1823814480000,
            "relative_velocity": {
                "kilometers_per_second": "5.915685503",
                "kilometers_per_hour": "21296.467810925",
                "miles_per_hour": "13232.7969017384"
            },
            "miss_distance": {
                "astronomical": "0.3601721704",
                "lunar": "140.1069742856",
                "kilometers": "53880989.525117048",
                "miles": "33480094.3983013424"
            },
            "orbiting_body": "Earth"
        }
    ],
    "orbital_data": {
        "orbit_id": "8",
        "orbit_determination_date": "2017-04-06 08:37:26",
        "first_observation_date": "2014-11-17",
        "last_observation_date": "2014-12-21",
        "data_arc_in_days": 34,
        "observations_used": 31,
        "orbit_uncertainty": "6",
        "minimum_orbit_intersection": ".266195",
        "jupiter_tisserand_invariant": "4.477",
        "epoch_osculation": "2459000.5",
        "eccentricity": ".1750328077191066",
        "semi_major_axis": "1.514261452381719",
        "inclination": "11.6681415777266",
        "ascending_node_longitude": "45.62777896442947",
        "orbital_period": "680.6121963641187",
        "perihelion_distance": "1.249216018750534",
        "perihelion_argument": "19.30233830253781",
        "aphelion_distance": "1.779306886012903",
        "perihelion_time": "2459038.698741347128",
        "mean_anomaly": "339.7953269741156",
        "mean_motion": ".5289355699517977",
        "equinox": "J2000",
        "orbit_class": {
            "orbit_class_type": "AMO",
            "orbit_class_description": "Near-Earth asteroid orbits similar to that of 1221 Amor",
            "orbit_class_range": "1.017 AU < q (perihelion) < 1.3 AU"
        }
    },
    "is_sentry_object": false
}